NUSAT-1 (FRESCO)        
1 41557U 16033B   22230.49979358  .00010642  00000+0  30580-3 0  9999
2 41557  97.3902 328.3628 0011364 149.3933 339.4387 15.35940603346908
BEESAT-4                
1 41619U 16040W   22230.56394105  .00014734  00000+0  47032-3 0  9991
2 41619  97.2118 279.5790 0007598 248.0602 111.9833 15.32555225330233
CAS-2T & KS-1Q          
1 41847U 16066G   22230.17365107  .00000665  00000+0  10908-3 0  9999
2 41847  98.5468 294.7636 0363890  25.4307 336.4301 14.38694375303223
NAYIF-1 (EO-88)         
1 42017U 17008BX  22230.40932773  .00021091  00000+0  59669-3 0  9994
2 42017  97.2640 295.6822 0005283  42.1405 318.0245 15.36318639306582
ZHUHAI-1 02 (CAS-4B)    
1 42759U 17034B   22230.60170087  .00003031  00000+0  18475-3 0  9994
2 42759  43.0185 350.0424 0010486 316.9412 116.0529 15.12270958285765
ZHUHAI-1 01 (CAS-4A)    
1 42761U 17034D   22230.57487271  .00003079  00000+0  18702-3 0  9994
2 42761  43.0186 348.9302 0010880 319.4790 151.8192 15.12357236285763
MAX VALIER SAT          
1 42778U 17036P   22230.42891615  .00008037  00000+0  29770-3 0  9995
2 42778  97.2009 269.4194 0012603 105.1638 255.0997 15.27826670286364
RADFXSAT (FOX-1B)       
1 43017U 17073E   22230.50550830  .00005068  00000+0  38097-3 0  9996
2 43017  97.6662 122.1500 0246973 344.9835  14.4135 14.81818965256306
FOX-1D (AO-92)          
1 43137U 18004AC  22230.42793837  .00012486  00000+0  42689-3 0  9995
2 43137  97.3647 305.0580 0008743 134.9183 225.2768 15.30373893255824
DIWATA-2B               
1 43678U 18084H   22230.54307001  .00001031  00000+0  10672-3 0  9991
2 43678  97.9793   4.5666 0011313  81.4999 278.7512 14.92260376207113
ES'HAIL 2               
1 43700U 18090A   22230.50259657  .00000137  00000+0  00000+0 0  9999
2 43700   0.0140 111.6282 0002030  79.1795 342.7190  1.00272795 13659
FOX-1CLIFF (AO-95)      
1 43770U 18099N   22230.16975214  .00002074  00000+0  18628-3 0  9992
2 43770  97.6165 294.9140 0015291  70.9411 289.3465 14.96681062202246
ITASAT 1                
1 43786U 18099AE  22230.49195197  .00001368  00000+0  12419-3 0  9996
2 43786  97.6197 296.1793 0016137  62.9913 297.2954 14.96797593202332
JY1SAT (JO-97)          
1 43803U 18099AX  22230.42127557  .00002358  00000+0  20748-3 0  9998
2 43803  97.6158 295.8848 0016081  62.4133 297.8720 14.97351164202342
UWE-4                   
1 43880U 18111E   22230.50973085  .00002056  00000+0  17676-3 0  9993
2 43880  97.6627 135.7342 0013324 107.3364 252.9317 14.98435359198990
NEXUS (FO-99)           
1 43937U 19003F   22230.05104007  .00013053  00000+0  42313-3 0  9992
2 43937  97.1270 261.0446 0017927 295.0677  64.8704 15.31956323199409
PSAT2 (NO-104)          
1 44354U 19036R   22230.36581954  .00062822 -55978-5  50305-3 0  9995
2 44354  28.5249 107.1387 0210410 312.0587  46.2286 15.45517851174252
JAISAT-1                
1 44419U 19038F   22230.47658920  .00008475  00000+0  41698-3 0  9997
2 44419  97.6404 201.1494 0016914 277.4789  82.4523 15.18137078172465
DUCHIFAT-3              
1 44854U 19089C   22230.63373950  .00002671  00000+0  20906-3 0  9992
2 44854  36.9658  91.6207 0008639 356.6820  34.3101 15.01407728147284
CAS-6 (TIANQIN 1)       
1 44881U 19093C   22230.43471094  .00000385  00000+0  55417-4 0  9999
2 44881  97.8914 308.7510 0014722 350.2466   9.8452 14.81786464143950
RS-44 & BREEZE-KM R/B   
1 44909U 19096E   22230.34596836  .00000008  00000+0 -16904-4 0  9996
2 44909  82.5229 189.1587 0217386 174.7230 185.6237 12.79714273123423
ORBITAL FACTORY 2 (OF-2)
1 45113U 19071C   22228.71331178  .00026053  00000+0  49433-3 0  9990
2 45113  51.6369 122.2776 0009155  42.0567 318.1122 15.48087004142706
HUSKYSAT-1 (HO-107)     
1 45119U 19071J   22230.37643364  .00031535  00000+0  62114-3 0  9996
2 45119  51.6369 114.6042 0009009  43.6395 316.5304 15.46902181142947
BY70-2                  
1 45857U 20042B   22230.41777605  .00004812  00000+0  63584-3 0  9996
2 45857  97.9536 306.6894 0008725 274.5546  85.4657 14.80436334114626
SALSAT                  
1 46495U 20068K   22230.47703800  .00001560  00000+0  11486-3 0  9996
2 46495  97.7308 171.8131 0018064  69.3851 290.9310 15.04722748103511
BY70-3                  
1 46839U 20079N   22230.50564297  .00019564  00000+0  42587-3 0  9998
2 46839  97.1940 301.8720 0006920 107.7456  25.2952 15.44304977 99816
RADFXSAT-2 (AO-109)     
1 47311U 21002C   22230.26784680  .00011039  00000+0  43020-3 0  9996
2 47311  60.6846 129.4075 0027613  22.4806 337.7485 15.26118842 87894
UVSQ-SAT                
1 47438U 21006AB  22230.12717054  .00006358  00000+0  33105-3 0  9997
2 47438  97.4324 287.8799 0013134  65.5125 294.7476 15.16285561 86624
DIY-1 (ARDUIQUBE)       
1 47963U 21022AH  22230.26312186  .00020413  00000+0  10898-2 0  9991
2 47963  97.5247 130.9551 0014091 281.2447  78.7201 15.15072849 76305
XW-3 (CAS-9)            
1 50466U 21131B   22230.49469482  .00000083  00000+0  41871-4 0  9999
2 50466  98.5783 307.7136 0003714 338.0450  22.0577 14.38515780 33830
TEVEL-3                 
1 50988U 22002E   22230.46818748  .00005335  00000+0  28830-3 0  9990
2 50988  97.4771 296.4299 0009094 200.0518 286.0706 15.15080507 32800
TEVEL-8                 
1 50989U 22002F   22230.47542690  .00005198  00000+0  28146-3 0  9999
2 50989  97.4788 296.4622 0009331 198.4920 287.6055 15.15026539 32809
TEVEL-5                 
1 50998U 22002Q   22230.46925861  .00005481  00000+0  29198-3 0  9996
2 50998  97.4767 296.5593 0010711 196.2424 289.8595 15.15570697 32816
TEVEL-6                 
1 50999U 22002R   22230.46875147  .00005472  00000+0  29145-3 0  9990
2 50999  97.4765 296.5572 0010729 195.9662 290.2120 15.15575038 32815
TEVEL-1                 
1 51013U 22002AF  22230.47135978  .00005247  00000+0  28385-3 0  9995
2 51013  97.4775 296.4119 0009023 199.3102 286.5727 15.15054065 32804
TEVEL-7                 
1 51062U 22002CG  22230.47698928  .00005122  00000+0  27747-3 0  9991
2 51062  97.4783 296.4495 0009155 197.9370 287.5053 15.15017473 32806
TEVEL-4                 
1 51063U 22002CH  22230.47778645  .00005120  00000+0  27742-3 0  9990
2 51063  97.4786 296.4472 0009103 198.2659 287.1068 15.15008315 32809
TEVEL-2                 
1 51069U 22002CP  22230.53245057  .00005309  00000+0  28702-3 0  9995
2 51069  97.4763 296.4788 0008992 199.8124 269.4551 15.15073335 32814
RS3S                    
1 53308U 98067TT  22230.51431785  .00045085  00000+0  74143-3 0  9995
2 53308  51.6423  27.6500 0002292 125.4224 234.6980 15.51909237  4397
RS1S                    
1 53309U 98067TU  22230.51369212  .00045198  00000+0  74185-3 0  9992
2 53309  51.6420  27.6447 0002862 143.8498 216.2686 15.51960922  4347
RS5S                    
1 53310U 98067TV  22230.51382442  .00042898  00000+0  70601-3 0  9997
2 53310  51.6425  27.6467 0002602 145.2947 214.8213 15.51909509  4370
RS6S                    
1 53311U 98067TW  22230.51234279  .00048114  00000+0  78534-3 0  9992
2 53311  51.6419  27.6358 0002033 117.2912 242.8285 15.52090054  4391
RS9S                    
1 53312U 98067TX  22230.51275169  .00045867  00000+0  75114-3 0  9999
2 53312  51.6423  27.6386 0003070 147.2248 212.8933 15.52016925  4331
RS12S                   
1 53313U 98067TY  22230.51196651  .00044963  00000+0  73526-3 0  9999
2 53313  51.6423  27.6339 0002587 153.0880 207.0244 15.52067836  4382
RS4S                    
1 53321U 98067TZ  22230.51476224  .00045632  00000+0  75051-3 0  9994
2 53321  51.6426  27.6540 0002402 134.3216 225.7971 15.51900654  4386
RS29S (SXC3-2110 CYCLO*)
1 53373U 22096D   22230.55931711  .00008333  00000+0  34158-3 0  9991
2 53373  97.4350 131.9580 0003110 119.4459 240.7089 15.24515900  1414
RS32S (SXC3-212 MONITO*)
1 53374U 22096E   22230.55868690  .00008879  00000+0  36260-3 0  9998
2 53374  97.4350 131.9588 0003353 115.0003 245.1583 15.24622193  1410
RS34S (SXC3-218 KUZBAS*)
1 53375U 22096F   22230.55853621  .00006996  00000+0  28626-3 0  9992
2 53375  97.4350 131.9590 0003361 114.2167 245.9422 15.24637850  1411
RS23S (SXC3-21 UTMN)    
1 53376U 22096G   22230.55833729  .00007875  00000+0  32149-3 0  9992
2 53376  97.4350 131.9592 0003348 112.6710 247.4882 15.24674013  1414
RS28S (SXC3-214 MIET-A*)
1 53377U 22096H   22230.55814805  .00007565  00000+0  30867-3 0  9998
2 53377  97.4351 131.9595 0003398 112.7388 247.4209 15.24701637  1412
RS26S (KAI-1)           
1 53378U 22096J   22230.55789757  .00006636  00000+0  27087-3 0  9994
2 53378  97.4351 131.9598 0003429 107.3561 252.8052 15.24738617  1418
RS19S (SXC3-219 ISOI)   
1 53381U 22096M   22230.48986838  .00007371  00000+0  29684-3 0  9991
2 53381  97.4350 131.8978 0005921  70.3063 289.8813 15.25142131  1402
RS21S (CUBESX-HSE-2)    
1 53383U 22096P   22230.55510039  .00007739  00000+0  31094-3 0  9993
2 53383  97.4350 131.9635 0006076  69.2230 290.9659 15.25204587  1416
RS30S (SXC3-217 SIREN)  
1 53384U 22096Q   22230.55495618  .00007514  00000+0  30181-3 0  9996
2 53384  97.4349 131.9637 0006155  68.3904 291.7989 15.25224227  1411
RS20S (GEOSCAN-EDELVEIS)
1 53385U 22096R   22230.55409289  .00008552  00000+0  34146-3 0  9994
2 53385  97.4349 131.9649 0006646  68.7135 291.4812 15.25378817  1440
RS33S (SXC3-215 VIZARD) 
1 53386U 22096S   22230.55284901  .00010641  00000+0  42120-3 0  9990
2 53386  97.4350 131.9665 0007416  68.2638 291.9389 15.25599025  1439
